{
  "norad_id": 66921,
  "name": "HULIANWANG DIGUI-111",
  "history": [
    {
      "epoch": "2026-03-28T21:49:41.038464Z",
      "apogee_km": 1149.608326586067,
      "perigee_km": 1148.9567531506955,
      "latitude_deg": 1.1255609571166499e-05,
      "longitude_deg": -79.98396696398741,
      "height_km": 1149.467798413392,
      "semi_major_axis_km": 7527.4195398683805,
      "eccentricity": 4.328e-05,
      "inclination_deg": 50.0118,
      "raan_deg": 73.7602,
      "arg_perigee_deg": 8.9558,
      "mean_anomaly_deg": 351.1322,
      "mean_motion_rev_day": 13.29332366
    },
    {
      "epoch": "2026-03-29T05:02:42.945792Z",
      "apogee_km": 1149.6090750931562,
      "perigee_km": 1148.9556950905298,
      "latitude_deg": -1.4184782131344807e-05,
      "longitude_deg": 170.38326495079136,
      "height_km": 1149.4682138844244,
      "semi_major_axis_km": 7527.419385091843,
      "eccentricity": 4.34e-05,
      "inclination_deg": 50.0118,
      "raan_deg": 72.6818,
      "arg_perigee_deg": 10.4855,
      "mean_anomaly_deg": 349.6026,
      "mean_motion_rev_day": 13.29332407
    }
  ]
}